{
    "links": {
        "self": "http://www.neowsapp.com/rest/v1/neo/3843708?api_key=iIulBulltgU6a56xZRHN4H3l9WmuAYTsLGpBGhQ2"
    },
    "id": "3843708",
    "neo_reference_id": "3843708",
    "name": "(2019 QO6)",
    "designation": "2019 QO6",
    "nasa_jpl_url": "http://ssd.jpl.nasa.gov/sbdb.cgi?sstr=3843708",
    "absolute_magnitude_h": 22.3,
    "estimated_diameter": {
        "kilometers": {
            "estimated_diameter_min": 0.0921626549,
            "estimated_diameter_max": 0.2060819612
        },
        "meters": {
            "estimated_diameter_min": 92.1626548503,
            "estimated_diameter_max": 206.0819612321
        },
        "miles": {
            "estimated_diameter_min": 0.057267201,
            "estimated_diameter_max": 0.1280533543
        },
        "feet": {
            "estimated_diameter_min": 302.370924539,
            "estimated_diameter_max": 676.1219416887
        }
    },
    "is_potentially_hazardous_asteroid": false,
    "close_approach_data": [
        {
            "close_approach_date": "2013-09-03",
            "close_approach_date_full": "2013-Sep-03 15:59",
            "epoch_date_close_approach": 1378223940000,
            "relative_velocity": {
                "kilometers_per_second": "24.4571982607",
                "kilometers_per_hour": "88045.9137386183",
                "miles_per_hour": "54708.3067894209"
            },
            "miss_distance": {
                "astronomical": "0.4916319781",
                "lunar": "191.2448394809",
                "kilometers": "73547096.747646647",
                "miles": "45700046.7796598486"
            },
            "orbiting_body": "Earth"
        },
        {
            "close_approach_date": "2016-09-13",
            "close_approach_date_full": "2016-Sep-13 01:43",
            "epoch_date_close_approach": 1473730980000,
            "relative_velocity": {
                "kilometers_per_second": "18.8493930028",
                "kilometers_per_hour": "67857.8148101567",
                "miles_per_hour": "42164.207208011"
            },
            "miss_distance": {
                "astronomical": "0.2964973697",
                "lunar": "115.3374768133",
                "kilometers": "44355374.967722539",
                "miles": "27561151.9773434782"
            },
            "orbiting_body": "Earth"
        },
        {
            "close_approach_date": "2019-09-24",
            "close_approach_date_full": "2019-Sep-24 06:25",
            "epoch_date_close_approach": 1569306300000,
            "relative_velocity": {
                "kilometers_per_second": "13.3430690029",
                "kilometers_per_hour": "48035.0484105088",
                "miles_per_hour": "29847.1110526297"
            },
            "miss_distance": {
                "astronomical": "0.1003166332",
                "lunar": "39.0231703148",
                "kilometers": "15007154.652291284",
                "miles": "9325013.4943123592"
            },
            "orbiting_body": "Earth"
        },
        {
            "close_approach_date": "2022-10-08",
            "close_approach_date_full": "2022-Oct-08 05:00",
            "epoch_date_close_approach": 1665205200000,
            "relative_velocity": {
                "kilometers_per_second": "8.5085521828",
                "kilometers_per_hour": "30630.7878580554",
                "miles_per_hour": "19032.78037769"
            },
            "miss_distance": {
                "astronomical": "0.0951286889",
                "lunar": "37.0050599821",
                "kilometers": "14231049.235332643",
                "miles": "8842763.9504227534"
            },
            "orbiting_body": "Earth"
        },
        {
            "close_approach_date": "2023-03-25",
            "close_approach_date_full": "2023-Mar-25 09:42",
            "epoch_date_close_approach": 1679737320000,
            "relative_velocity": {
                "kilometers_per_second": "8.1499280354",
                "kilometers_per_hour": "29339.7409275359",
                "miles_per_hour": "18230.5740224459"
            },
            "miss_distance": {
                "astronomical": "0.4553017408",
                "lunar": "177.1123771712",
                "kilometers": "68112170.630972096",
                "miles": "42322940.2892670848"
            },
            "orbiting_body": "Earth"
        }
    ],
    "orbital_data": {
        "orbit_id": "8",
        "orbit_determination_date": "2019-10-09 05:56:51",
        "first_observation_date": "2019-08-28",
        "last_observation_date": "2019-09-17",
        "data_arc_in_days": 20,
        "observations_used": 40,
        "orbit_uncertainty": "7",
        "minimum_orbit_intersection": ".0297684",
        "jupiter_tisserand_invariant": "4.866",
        "epoch_osculation": "2459000.5",
        "eccentricity": ".3699359298767058",
        "semi_major_axis": "1.318938330466873",
        "inclination": "10.00566069510108",
        "ascending_node_longitude": "178.2056729366044",
        "orbital_period": "553.2675023003953",
        "perihelion_distance": ".8310156527355805",
        "perihelion_argument": "259.4221174727945",
        "aphelion_distance": "1.806861008198166",
        "perihelion_time": "2458804.957698681643",
        "mean_anomaly": "127.2354298452676",
        "mean_motion": ".6506798221532607",
        "equinox": "J2000",
        "orbit_class": {
            "orbit_class_type": "APO",
            "orbit_class_description": "Near-Earth asteroid orbits which cross the Earth’s orbit similar to that of 1862 Apollo",
            "orbit_class_range": "a (semi-major axis) > 1.0 AU; q (perihelion) < 1.017 AU"
        }
    },
    "is_sentry_object": false
}